CCSDS_OMM_VERS = 2.0
CREATION_DATE  = 
ORIGINATOR     = 

OBJECT_NAME    = STARLINK-35722
OBJECT_ID      = 2025-244N
CENTER_NAME    = EARTH
REF_FRAME      = TEME
TIME_SYSTEM    = UTC
MEAN_ELEMENT_THEORY = SGP/SGP4

EPOCH          = 2025-11-26T02:30:07.248384
MEAN_MOTION    = 15.39625007
ECCENTRICITY   = .0001549
INCLINATION    = 53.1591
RA_OF_ASC_NODE = 354.3532
ARG_OF_PERICENTER = 88.9748
MEAN_ANOMALY   = 271.1434

EPHEMERIS_TYPE = 0
CLASSIFICATION_TYPE = U
NORAD_CAT_ID   = 66218
ELEMENT_SET_NO = 999
REV_AT_EPOCH   = 575
BSTAR          = .13947E-2
MEAN_MOTION_DOT = .55806E-3
MEAN_MOTION_DDOT = 0

CCSDS_OMM_VERS = 2.0
CREATION_DATE  = 
ORIGINATOR     = 

OBJECT_NAME    = STARLINK-35737
OBJECT_ID      = 2025-244P
CENTER_NAME    = EARTH
REF_FRAME      = TEME
TIME_SYSTEM    = UTC
MEAN_ELEMENT_THEORY = SGP/SGP4

EPOCH          = 2025-11-26T02:23:25.844352
MEAN_MOTION    = 15.39636190
ECCENTRICITY   = .0001434
INCLINATION    = 53.1596
RA_OF_ASC_NODE = 354.3247
ARG_OF_PERICENTER = 96.7375
MEAN_ANOMALY   = 263.3793

EPHEMERIS_TYPE = 0
CLASSIFICATION_TYPE = U
NORAD_CAT_ID   = 66219
ELEMENT_SET_NO = 999
REV_AT_EPOCH   = 575
BSTAR          = .14482E-2
MEAN_MOTION_DOT = .58001E-3
MEAN_MOTION_DDOT = 0

CCSDS_OMM_VERS = 2.0
CREATION_DATE  = 
ORIGINATOR     = 

OBJECT_NAME    = STARLINK-35677
OBJECT_ID      = 2025-244Q
CENTER_NAME    = EARTH
REF_FRAME      = TEME
TIME_SYSTEM    = UTC
MEAN_ELEMENT_THEORY = SGP/SGP4

EPOCH          = 2025-11-26T04:00:03.000096
MEAN_MOTION    = 15.39600488
ECCENTRICITY   = .0001432
INCLINATION    = 53.1595
RA_OF_ASC_NODE = 353.9555
ARG_OF_PERICENTER = 102.6381
MEAN_ANOMALY   = 295.3275

EPHEMERIS_TYPE = 0
CLASSIFICATION_TYPE = U
NORAD_CAT_ID   = 66220
ELEMENT_SET_NO = 999
REV_AT_EPOCH   = 554
BSTAR          = .51501E-3
MEAN_MOTION_DOT = .20242E-3
MEAN_MOTION_DDOT = 0

CCSDS_OMM_VERS = 2.0
CREATION_DATE  = 
ORIGINATOR     = 

OBJECT_NAME    = STARLINK-35704
OBJECT_ID      = 2025-244R
CENTER_NAME    = EARTH
REF_FRAME      = TEME
TIME_SYSTEM    = UTC
MEAN_ELEMENT_THEORY = SGP/SGP4

EPOCH          = 2025-11-26T04:00:03.000096
MEAN_MOTION    = 15.39600604
ECCENTRICITY   = .0001787
INCLINATION    = 53.1597
RA_OF_ASC_NODE = 353.9035
ARG_OF_PERICENTER = 97.4055
MEAN_ANOMALY   = 326.3063

EPHEMERIS_TYPE = 0
CLASSIFICATION_TYPE = U
NORAD_CAT_ID   = 66221
ELEMENT_SET_NO = 999
REV_AT_EPOCH   = 554
BSTAR          = .54817E-3
MEAN_MOTION_DOT = .21575E-3
MEAN_MOTION_DDOT = 0

CCSDS_OMM_VERS = 2.0
CREATION_DATE  = 
ORIGINATOR     = 

OBJECT_NAME    = STARLINK-35666
OBJECT_ID      = 2025-244S
CENTER_NAME    = EARTH
REF_FRAME      = TEME
TIME_SYSTEM    = UTC
MEAN_ELEMENT_THEORY = SGP/SGP4

EPOCH          = 2025-11-26T04:00:03.000096
MEAN_MOTION    = 15.39603144
ECCENTRICITY   = .0001327
INCLINATION    = 53.1600
RA_OF_ASC_NODE = 353.8520
ARG_OF_PERICENTER = 112.9453
MEAN_ANOMALY   = 336.5163

EPHEMERIS_TYPE = 0
CLASSIFICATION_TYPE = U
NORAD_CAT_ID   = 66222
ELEMENT_SET_NO = 999
REV_AT_EPOCH   = 565
BSTAR          = .52744E-3
MEAN_MOTION_DOT = .20743E-3
MEAN_MOTION_DDOT = 0

CCSDS_OMM_VERS = 2.0
CREATION_DATE  = 
ORIGINATOR     = 

OBJECT_NAME    = STARLINK-35664
OBJECT_ID      = 2025-244T
CENTER_NAME    = EARTH
REF_FRAME      = TEME
TIME_SYSTEM    = UTC
MEAN_ELEMENT_THEORY = SGP/SGP4

EPOCH          = 2025-11-26T04:00:03.000096
MEAN_MOTION    = 15.39598034
ECCENTRICITY   = .0001624
INCLINATION    = 53.1600
RA_OF_ASC_NODE = 353.8565
ARG_OF_PERICENTER = 93.5674
MEAN_ANOMALY   = 354.0731

EPHEMERIS_TYPE = 0
CLASSIFICATION_TYPE = U
NORAD_CAT_ID   = 66223
ELEMENT_SET_NO = 999
REV_AT_EPOCH   = 565
BSTAR          = .52604E-3
MEAN_MOTION_DOT = .20683E-3
MEAN_MOTION_DDOT = 0

CCSDS_OMM_VERS = 2.0
CREATION_DATE  = 
ORIGINATOR     = 

OBJECT_NAME    = STARLINK-35733
OBJECT_ID      = 2025-244U
CENTER_NAME    = EARTH
REF_FRAME      = TEME
TIME_SYSTEM    = UTC
MEAN_ELEMENT_THEORY = SGP/SGP4

EPOCH          = 2025-11-26T04:00:03.000096
MEAN_MOTION    = 15.39600045
ECCENTRICITY   = .0001344
INCLINATION    = 53.1603
RA_OF_ASC_NODE = 353.8008
ARG_OF_PERICENTER = 85.0283
MEAN_ANOMALY   = 30.1954

EPHEMERIS_TYPE = 0
CLASSIFICATION_TYPE = U
NORAD_CAT_ID   = 66224
ELEMENT_SET_NO = 999
REV_AT_EPOCH   = 554
BSTAR          = .54007E-3
MEAN_MOTION_DOT = .21249E-3
MEAN_MOTION_DDOT = 0

CCSDS_OMM_VERS = 2.0
CREATION_DATE  = 
ORIGINATOR     = 

OBJECT_NAME    = STARLINK-35734
OBJECT_ID      = 2025-244V
CENTER_NAME    = EARTH
REF_FRAME      = TEME
TIME_SYSTEM    = UTC
MEAN_ELEMENT_THEORY = SGP/SGP4

EPOCH          = 2025-11-26T04:00:03.000096
MEAN_MOTION    = 15.39591447
ECCENTRICITY   = .000163
INCLINATION    = 53.1603
RA_OF_ASC_NODE = 353.8038
ARG_OF_PERICENTER = 91.8820
MEAN_ANOMALY   = 21.5118

EPHEMERIS_TYPE = 0
CLASSIFICATION_TYPE = U
NORAD_CAT_ID   = 66225
ELEMENT_SET_NO = 999
REV_AT_EPOCH   = 554
BSTAR          = .67939E-3
MEAN_MOTION_DOT = .26846E-3
MEAN_MOTION_DDOT = 0

CCSDS_OMM_VERS = 2.0
CREATION_DATE  = 
ORIGINATOR     = 

OBJECT_NAME    = STARLINK-34466
OBJECT_ID      = 2025-244W
CENTER_NAME    = EARTH
REF_FRAME      = TEME
TIME_SYSTEM    = UTC
MEAN_ELEMENT_THEORY = SGP/SGP4

EPOCH          = 2025-11-26T04:00:03.000096
MEAN_MOTION    = 15.39584810
ECCENTRICITY   = .0001155
INCLINATION    = 53.1603
RA_OF_ASC_NODE = 353.7522
ARG_OF_PERICENTER = 92.6246
MEAN_ANOMALY   = 46.5391

EPHEMERIS_TYPE = 0
CLASSIFICATION_TYPE = U
NORAD_CAT_ID   = 66226
ELEMENT_SET_NO = 999
REV_AT_EPOCH   = 586
BSTAR          = .72068E-3
MEAN_MOTION_DOT = .28501E-3
MEAN_MOTION_DDOT = 0

CCSDS_OMM_VERS = 2.0
CREATION_DATE  = 
ORIGINATOR     = 

OBJECT_NAME    = STARLINK-34882
OBJECT_ID      = 2025-244X
CENTER_NAME    = EARTH
REF_FRAME      = TEME
TIME_SYSTEM    = UTC
MEAN_ELEMENT_THEORY = SGP/SGP4

EPOCH          = 2025-11-26T04:00:03.000096
MEAN_MOTION    = 15.39583452
ECCENTRICITY   = .0001183
INCLINATION    = 53.1604
RA_OF_ASC_NODE = 353.7478
ARG_OF_PERICENTER = 90.3723
MEAN_ANOMALY   = 50.6269

EPHEMERIS_TYPE = 0
CLASSIFICATION_TYPE = U
NORAD_CAT_ID   = 66227
ELEMENT_SET_NO = 999
REV_AT_EPOCH   = 586
BSTAR          = .69543E-3
MEAN_MOTION_DOT = .27484E-3
MEAN_MOTION_DDOT = 0

CCSDS_OMM_VERS = 2.0
CREATION_DATE  = 
ORIGINATOR     = 

OBJECT_NAME    = STARLINK-35731
OBJECT_ID      = 2025-244Y
CENTER_NAME    = EARTH
REF_FRAME      = TEME
TIME_SYSTEM    = UTC
MEAN_ELEMENT_THEORY = SGP/SGP4

EPOCH          = 2025-11-26T04:00:03.000096
MEAN_MOTION    = 15.42374331
ECCENTRICITY   = .0002135
INCLINATION    = 53.1604
RA_OF_ASC_NODE = 353.7052
ARG_OF_PERICENTER = 94.5064
MEAN_ANOMALY   = 67.8247

EPHEMERIS_TYPE = 0
CLASSIFICATION_TYPE = U
NORAD_CAT_ID   = 66228
ELEMENT_SET_NO = 999
REV_AT_EPOCH   = 554
BSTAR          = -.61234E-1
MEAN_MOTION_DOT = -.238846E-1
MEAN_MOTION_DDOT = 0

CCSDS_OMM_VERS = 2.0
CREATION_DATE  = 
ORIGINATOR     = 

OBJECT_NAME    = STARLINK-35758
OBJECT_ID      = 2025-244Z
CENTER_NAME    = EARTH
REF_FRAME      = TEME
TIME_SYSTEM    = UTC
MEAN_ELEMENT_THEORY = SGP/SGP4

EPOCH          = 2025-11-26T04:00:03.000096
MEAN_MOTION    = 15.42359459
ECCENTRICITY   = .0002007
INCLINATION    = 53.1601
RA_OF_ASC_NODE = 353.7018
ARG_OF_PERICENTER = 95.4468
MEAN_ANOMALY   = 68.7407

EPHEMERIS_TYPE = 0
CLASSIFICATION_TYPE = U
NORAD_CAT_ID   = 66229
ELEMENT_SET_NO = 999
REV_AT_EPOCH   = 554
BSTAR          = -.61228E-1
MEAN_MOTION_DOT = -.2387103E-1
MEAN_MOTION_DDOT = 0

