STARLINK-35722          
1 66218U 25244N   25330.10425056  .00055806  00000+0  13947-2 0  9995
2 66218  53.1591 354.3532 0001549  88.9748 271.1434 15.39625007  5754
STARLINK-35737          
1 66219U 25244P   25330.09960468  .00058001  00000+0  14482-2 0  9990
2 66219  53.1596 354.3247 0001434  96.7375 263.3793 15.39636190  5755
STARLINK-35677          
1 66220U 25244Q   25330.16670139  .00020242  00000+0  51501-3 0  9993
2 66220  53.1595 353.9555 0001432 102.6381 295.3275 15.39600488  5543
STARLINK-35704          
1 66221U 25244R   25330.16670139  .00021575  00000+0  54817-3 0  9997
2 66221  53.1597 353.9035 0001787  97.4055 326.3063 15.39600604  5541
STARLINK-35666          
1 66222U 25244S   25330.16670139  .00020743  00000+0  52744-3 0  9991
2 66222  53.1600 353.8520 0001327 112.9453 336.5163 15.39603144  5658
STARLINK-35664          
1 66223U 25244T   25330.16670139  .00020683  00000+0  52604-3 0  9990
2 66223  53.1600 353.8565 0001624  93.5674 354.0731 15.39598034  5654
STARLINK-35733          
1 66224U 25244U   25330.16670139  .00021249  00000+0  54007-3 0  9999
2 66224  53.1603 353.8008 0001344  85.0283  30.1954 15.39600045  5544
STARLINK-35734          
1 66225U 25244V   25330.16670139  .00026846  00000+0  67939-3 0  9996
2 66225  53.1603 353.8038 0001630  91.8820  21.5118 15.39591447  5549
STARLINK-34466          
1 66226U 25244W   25330.16670139  .00028501  00000+0  72068-3 0  9996
2 66226  53.1603 353.7522 0001155  92.6246  46.5391 15.39584810  5861
STARLINK-34882          
1 66227U 25244X   25330.16670139  .00027484  00000+0  69543-3 0  9990
2 66227  53.1604 353.7478 0001183  90.3723  50.6269 15.39583452  5860
STARLINK-35731          
1 66228U 25244Y   25330.16670139 -.02388460  00000+0 -61234-1 0  9996
2 66228  53.1604 353.7052 0002135  94.5064  67.8247 15.42374331  5540
STARLINK-35758          
1 66229U 25244Z   25330.16670139 -.02387103  00000+0 -61228-1 0  9993
2 66229  53.1601 353.7018 0002007  95.4468  68.7407 15.42359459  5548
